ORBCOMM FM103           
1 40091U 14040F   25359.53882941  .00000500  00000+0  14293-3 0  9993
2 40091  47.0033 193.8832 0001241  79.4691 280.6335 14.58552453592039
ORBCOMM FM114           
1 41179U 15081A   25359.69243010  .00000676  00000+0  18017-3 0  9994
2 41179  47.0044 102.1103 0001906 148.1675 211.9326 14.58574088532429
ORBCOMM FM119           
1 41180U 15081B   25359.07241392  .00000684  00000+0  18209-3 0  9991
2 41180  47.0014  14.3996 0001656 238.9483 121.1240 14.58521974533580
ORBCOMM FM105           
1 41181U 15081C   25359.15845778  .00000267  00000+0  11950-3 0  9992
2 41181  47.0020  37.6070 0000818 112.2235 247.8732 14.45414963528375
ORBCOMM FM110           
1 41182U 15081D   25359.54515684  .00000849  00000+0  21686-3 0  9999
2 41182  47.0017 102.3025 0002375 331.7075  28.3681 14.58604209532279
ORBCOMM FM118           
1 41183U 15081E   25359.71668973  .00000736  00000+0  19308-3 0  9992
2 41183  47.0039 101.7925 0003224 297.3945  62.6612 14.58595661532404
ORBCOMM FM112           
1 41184U 15081F   25359.10285546  .00000776  00000+0  20149-3 0  9996
2 41184  46.9999  13.2249 0000964 169.4321 190.6585 14.58599892533535
ORBCOMM FM113           
1 41185U 15081G   25359.08014130  .00000814  00000+0  20959-3 0  9995
2 41185  47.0016  13.6899 0000996 192.5177 167.5684 14.58596973533512
